HIMAWARI-8              
1 40267U 14060A   23337.45743859 -.00000263  00000+0  00000+0 0  9993
2 40267   0.0143  80.9858 0001009 186.9806 109.3978  1.00273110 33575
